CALSPHERE 1             
1 00900U 64063C   20113.86336098  .00000244  00000-0  25221-3 0  9993
2 00900  90.1579  27.4910 0024970 221.5376 225.7800 13.73360591762820
CALSPHERE 2             
1 00902U 64063E   20113.53998943  .00000039  00000-0  45060-4 0  9998
2 00902  90.1692  30.1010 0016257 269.4544 265.5227 13.52682287552522
LCS 1                   
1 01361U 65034C   20113.70341436  .00000015  00000-0  80022-3 0  9995
2 01361  32.1383 110.9054 0004952 277.2367  82.7567  9.89297198987402
TEMPSAT 1               
1 01512U 65065E   20113.90204219  .00000003  00000-0 -14895-4 0  9990
2 01512  89.8757 226.7779 0071605  76.7862  42.9047 13.33427150660681
CALSPHERE 4(A)          
1 01520U 65065H   20113.84803745  .00000055  00000-0  91171-4 0  9999
2 01520  90.0316 128.9416 0068681 320.2270 123.8567 13.35810848662776
OPS 5712 (P/L 160)      
1 02826U 67053A   20113.85035304  .00000535  00000-0  15692-3 0  9993
2 02826  69.9284 329.0862 0005118 358.0780   2.0332 14.49041469738880
OPS 5712 (P/L 153)      
1 02874U 67053H   20113.61454042 -.00000064  00000-0 -78429-5 0  9992
2 02874  69.9736 248.2502 0009754 241.0352 118.9776 13.96346776693164
SURCAL 150B             
1 02909U 67053J   20113.85136496  .00000730  00000-0  15991-3 0  9998
2 02909  69.9492 355.1132 0001978  70.8167 289.3186 14.61695651748757
RIGIDSPHERE 2 (LCS 4)   
1 05398U 71067E   20113.90677498  .00000145  00000-0  44219-4 0  9997
2 05398  87.6256 239.4668 0065673  96.1160 264.7525 14.33876860551681
